{
  "type": "FeatureCollection",
  "features": [
    {
      "type": "Feature",
      "properties": {
        "norad_id": 34852,
        "name": "COSMOS 2251 DEB",
        "group": "cosmos-2251-debris",
        "lat": 38.56613584228249,
        "lon": 57.43312762574327,
        "alt_km": 775.0169735906156,
        "timestamp": "2025-12-19T10:50:01.596941+00:00",
        "meta_object_name": "COSMOS 2251 DEB",
        "meta_object_id": "1993-036ABW",
        "meta_epoch": "2025-12-18T10:47:45.598848",
        "meta_mean_motion": 14.37009451,
        "meta_eccentricity": 0.00164441,
        "meta_inclination": 74.0327,
        "meta_ra_of_asc_node": 252.4705,
        "meta_arg_of_pericenter": 354.4179,
        "meta_mean_anomaly": 5.6788,
        "meta_ephemeris_type": 0,
        "meta_classification_type": "U",
        "meta_norad_cat_id": 34852,
        "meta_element_set_no": 999,
        "meta_rev_at_epoch": 87616,
        "meta_bstar": 9.6329972e-05,
        "meta_mean_motion_dot": 2.6e-06,
        "meta_mean_motion_ddot": 0,
        "tle_line1": "1 34852U 93036ABW 25352.44983332  .00000260  00000+0  96330-4 0  9998",
        "tle_line2": "2 34852  74.0327 252.4705 0016444 354.4179   5.6788 14.37009451876160"
      },
      "geometry": {
        "type": "Point",
        "coordinates": [
          57.43312762574327,
          38.56613584228249
        ]
      }
    },
    {
      "type": "Feature",
      "properties": {
        "norad_id": 34854,
        "name": "COSMOS 2251 DEB",
        "group": "cosmos-2251-debris",
        "lat": -70.97287667132643,
        "lon": 89.27452240722,
        "alt_km": 604.5962157844997,
        "timestamp": "2025-12-19T10:50:01.596951+00:00",
        "meta_object_name": "COSMOS 2251 DEB",
        "meta_object_id": "1993-036ABY",
        "meta_epoch": "2025-12-17T03:54:33.341760",
        "meta_mean_motion": 14.76668527,
        "meta_eccentricity": 0.00660904,
        "meta_inclination": 74.0279,
        "meta_ra_of_asc_node": 149.9114,
        "meta_arg_of_pericenter": 260.7011,
        "meta_mean_anomaly": 98.6686,
        "meta_ephemeris_type": 0,
        "meta_classification_type": "U",
        "meta_norad_cat_id": 34854,
        "meta_element_set_no": 999,
        "meta_rev_at_epoch": 71947,
        "meta_bstar": 0.00058059968,
        "meta_mean_motion_dot": 4.175e-05,
        "meta_mean_motion_ddot": 0,
        "tle_line1": "1 34854U 93036ABY 25351.16288590  .00004175  00000+0  58060-3 0  9998",
        "tle_line2": "2 34854  74.0279 149.9114 0066090 260.7011  98.6686 14.76668527719475"
      },
      "geometry": {
        "type": "Point",
        "coordinates": [
          89.27452240722,
          -70.97287667132643
        ]
      }
    },
    {
      "type": "Feature",
      "properties": {
        "norad_id": 34856,
        "name": "COSMOS 2251 DEB",
        "group": "cosmos-2251-debris",
        "lat": -11.203516611375782,
        "lon": 67.78659200982895,
        "alt_km": 568.3739480526046,
        "timestamp": "2025-12-19T10:50:01.596961+00:00",
        "meta_object_name": "COSMOS 2251 DEB",
        "meta_object_id": "1993-036ACA",
        "meta_epoch": "2025-12-18T06:28:36.328224",
        "meta_mean_motion": 15.06351837,
        "meta_eccentricity": 0.00322008,
        "meta_inclination": 73.998,
        "meta_ra_of_asc_node": 73.4749,
        "meta_arg_of_pericenter": 210.7387,
        "meta_mean_anomaly": 212.757,
        "meta_ephemeris_type": 0,
        "meta_classification_type": "U",
        "meta_norad_cat_id": 34856,
        "meta_element_set_no": 999,
        "meta_rev_at_epoch": 89195,
        "meta_bstar": 0.0015696313,
        "meta_mean_motion_dot": 0.00023408,
        "meta_mean_motion_ddot": 0,
        "tle_line1": "1 34856U 93036ACA 25352.26986491  .00023408  00000+0  15696-2 0  9994",
        "tle_line2": "2 34856  73.9980  73.4749 0032200 210.7387 212.7570 15.06351837891958"
      },
      "geometry": {
        "type": "Point",
        "coordinates": [
          67.78659200982895,
          -11.203516611375782
        ]
      }
    },
    {
      "type": "Feature",
      "properties": {
        "norad_id": 34857,
        "name": "COSMOS 2251 DEB",
        "group": "cosmos-2251-debris",
        "lat": -59.384186191390675,
        "lon": 65.0585875925691,
        "alt_km": 694.4320952760036,
        "timestamp": "2025-12-19T10:50:01.596972+00:00",
        "meta_object_name": "COSMOS 2251 DEB",
        "meta_object_id": "1993-036ACB",
        "meta_epoch": "2025-12-17T13:07:27.079680",
        "meta_mean_motion": 14.58941212,
        "meta_eccentricity": 0.00656795,
        "meta_inclination": 74.0163,
        "meta_ra_of_asc_node": 97.66,
        "meta_arg_of_pericenter": 221.2744,
        "meta_mean_anomaly": 155.4118,
        "meta_ephemeris_type": 0,
        "meta_classification_type": "U",
        "meta_norad_cat_id": 34857,
        "meta_element_set_no": 999,
        "meta_rev_at_epoch": 87971,
        "meta_bstar": 0.00084400189,
        "meta_mean_motion_dot": 4.049e-05,
        "meta_mean_motion_ddot": 0,
        "tle_line1": "1 34857U 93036ACB 25351.54684120  .00004049  00000+0  84400-3 0  9999",
        "tle_line2": "2 34857  74.0163  97.6600 0065679 221.2744 155.4118 14.58941212879717"
      },
      "geometry": {
        "type": "Point",
        "coordinates": [
          65.0585875925691,
          -59.384186191390675
        ]
      }
    },
    {
      "type": "Feature",
      "properties": {
        "norad_id": 34859,
        "name": "COSMOS 2251 DEB",
        "group": "cosmos-2251-debris",
        "lat": 10.507880043231205,
        "lon": 142.63921863333093,
        "alt_km": 520.9889613122914,
        "timestamp": "2025-12-19T10:50:01.596982+00:00",
        "meta_object_name": "COSMOS 2251 DEB",
        "meta_object_id": "1993-036ACD",
        "meta_epoch": "2025-12-18T21:32:00.485376",
        "meta_mean_motion": 15.15701448,
        "meta_eccentricity": 0.00017381,
        "meta_inclination": 74.0274,
        "meta_ra_of_asc_node": 326.8387,
        "meta_arg_of_pericenter": 11.7586,
        "meta_mean_anomaly": 14.5218,
        "meta_ephemeris_type": 0,
        "meta_classification_type": "U",
        "meta_norad_cat_id": 34859,
        "meta_element_set_no": 999,
        "meta_rev_at_epoch": 88452,
        "meta_bstar": 0.0034830236,
        "meta_mean_motion_dot": 0.00066942,
        "meta_mean_motion_ddot": 0,
        "tle_line1": "1 34859U 93036ACD 25352.89722784  .00066942  00000+0  34830-2 0  9990",
        "tle_line2": "2 34859  74.0274 326.8387 0001738  11.7586  14.5218 15.15701448884523"
      },
      "geometry": {
        "type": "Point",
        "coordinates": [
          142.63921863333093,
          10.507880043231205
        ]
      }
    },
    {
      "type": "Feature",
      "properties": {
        "norad_id": 34861,
        "name": "COSMOS 2251 DEB",
        "group": "cosmos-2251-debris",
        "lat": 44.07905864259557,
        "lon": -158.97405049306548,
        "alt_km": 555.2141017249032,
        "timestamp": "2025-12-19T10:50:01.596996+00:00",
        "meta_object_name": "COSMOS 2251 DEB",
        "meta_object_id": "1993-036ACF",
        "meta_epoch": "2025-12-18T14:08:43.600128",
        "meta_mean_motion": 15.02920509,
        "meta_eccentricity": 0.00076164,
        "meta_inclination": 74.0194,
        "meta_ra_of_asc_node": 38.8984,
        "meta_arg_of_pericenter": 29.0921,
        "meta_mean_anomaly": 122.3778,
        "meta_ephemeris_type": 0,
        "meta_classification_type": "U",
        "meta_norad_cat_id": 34861,
        "meta_element_set_no": 999,
        "meta_rev_at_epoch": 88180,
        "meta_bstar": 0.0018473696,
        "meta_mean_motion_dot": 0.00024875,
        "meta_mean_motion_ddot": 0,
        "tle_line1": "1 34861U 93036ACF 25352.58939352  .00024875  00000+0  18474-2 0  9995",
        "tle_line2": "2 34861  74.0194  38.8984 0007616  29.0921 122.3778 15.02920509881800"
      },
      "geometry": {
        "type": "Point",
        "coordinates": [
          -158.97405049306548,
          44.07905864259557
        ]
      }
    },
    {
      "type": "Feature",
      "properties": {
        "norad_id": 34874,
        "name": "COSMOS 2251 DEB",
        "group": "cosmos-2251-debris",
        "lat": -70.75034993839348,
        "lon": 6.4036631323623245,
        "alt_km": 812.314200912987,
        "timestamp": "2025-12-19T10:50:01.597006+00:00",
        "meta_object_name": "COSMOS 2251 DEB",
        "meta_object_id": "1993-036ACM",
        "meta_epoch": "2025-12-18T15:52:03.186336",
        "meta_mean_motion": 14.36336559,
        "meta_eccentricity": 0.00506617,
        "meta_inclination": 74.0397,
        "meta_ra_of_asc_node": 62.8903,
        "meta_arg_of_pericenter": 86.2977,
        "meta_mean_anomaly": 70.1378,
        "meta_ephemeris_type": 0,
        "meta_classification_type": "U",
        "meta_norad_cat_id": 34874,
        "meta_element_set_no": 999,
        "meta_rev_at_epoch": 87129,
        "meta_bstar": 0.00057276205,
        "meta_mean_motion_dot": 1.675e-05,
        "meta_mean_motion_ddot": 0,
        "tle_line1": "1 34874U 93036ACM 25352.66114799  .00001675  00000+0  57276-3 0  9995",
        "tle_line2": "2 34874  74.0397  62.8903 0050661  86.2977  70.1378 14.36336559871291"
      },
      "geometry": {
        "type": "Point",
        "coordinates": [
          6.4036631323623245,
          -70.75034993839348
        ]
      }
    }
  ]
}